[{"id":1,"name":"Savannah Peterson","phones":[{"type":"mobile","value":"(555) 555-5591"}],"emails":[{"type":"private","value":"speterson@example.com"}],"addresses":[{"type":"home","street":"370 Spring Street","zip":"06476","city":"Liberty"}]},{"id":2,"name":"Anna Lopez","phones":[{"type":"mobile","value":"(555) 555-4991"}],"emails":[{"type":"private","value":"alopez@example.com"}],"addresses":[{"type":"home","street":"2458 Washington Avenue","zip":"31860","city":"Pleasant Valley"}]},{"id":3,"name":"Gabriel Taylor","phones":[{"type":"mobile","value":"(555) 555-0857"}],"emails":[{"type":"private","value":"gtaylor@example.com"}],"addresses":[{"type":"home","street":"9086 Washington Street","zip":"44511","city":"Clayton"}]},{"id":4,"name":"Logan Bell","phones":[{"type":"mobile","value":"(555) 555-8980"}],"emails":[{"type":"private","value":"lbell@example.com"}],"addresses":[{"type":"home","street":"6288 Monroe Street","zip":"98173","city":"Franklin"}]},{"id":5,"name":"Charlotte Cook","phones":[{"type":"mobile","value":"(555) 555-6112"}],"emails":[{"type":"private","value":"ccook@example.com"}],"addresses":[{"type":"home","street":"9861 Main Street South","zip":"22195","city":"Fairfield"}]},{"id":6,"name":"Evelyn Anderson","phones":[{"type":"mobile","value":"(555) 555-8210"}],"emails":[{"type":"private","value":"eanderson@example.com"}],"addresses":[{"type":"home","street":"220 2nd Street","zip":"97850","city":"Fairview"}]},{"id":7,"name":"Christian Perez","phones":[{"type":"mobile","value":"(555) 555-0705"}],"emails":[{"type":"private","value":"cperez@example.com"}],"addresses":[{"type":"home","street":"3656 12th Street","zip":"06107","city":"Madison"}]},{"id":8,"name":"Isabella Edwards","phones":[{"type":"mobile","value":"(555) 555-1144"}],"emails":[{"type":"private","value":"iedwards@example.com"}],"addresses":[{"type":"home","street":"5548 Water Street","zip":"54182","city":"Centerville"}]},{"id":9,"name":"Andrew Baker","phones":[{"type":"mobile","value":"(555) 555-6567"}],"emails":[{"type":"private","value":"abaker@example.com"}],"addresses":[{"type":"home","street":"3625 Maple Avenue","zip":"91240","city":"Forest Hills"}]},{"id":10,"name":"Isabella Cook","phones":[{"type":"mobile","value":"(555) 555-0336"}],"emails":[{"type":"private","value":"icook@example.com"}],"addresses":[{"type":"home","street":"4069 Church Road","zip":"33063","city":"Salem"}]},{"id":11,"name":"Evelyn Bennett","phones":[{"type":"mobile","value":"(555) 555-2988"}],"emails":[{"type":"private","value":"ebennett@example.com"}],"addresses":[{"type":"home","street":"7742 Park Street","zip":"73441","city":"Pleasant Hill"}]},{"id":12,"name":"Nicholas Jenkins","phones":[{"type":"mobile","value":"(555) 555-2172"}],"emails":[{"type":"private","value":"njenkins@example.com"}],"addresses":[{"type":"home","street":"3187 Oak Lane","zip":"49610","city":"Lexington"}]},{"id":13,"name":"Abigail King","phones":[{"type":"mobile","value":"(555) 555-9250"}],"emails":[{"type":"private","value":"aking@example.com"}],"addresses":[{"type":"home","street":"3838 New Street","zip":"82216","city":"Dayton"}]},{"id":14,"name":"Riley Brown","phones":[{"type":"mobile","value":"(555) 555-9553"}],"emails":[{"type":"private","value":"rbrown@example.com"}],"addresses":[{"type":"home","street":"2761 Route 32","zip":"21702","city":"Winchester"}]},{"id":15,"name":"Anthony Cooper","phones":[{"type":"mobile","value":"(555) 555-2469"}],"emails":[{"type":"private","value":"acooper@example.com"}],"addresses":[{"type":"home","street":"5046 Spring Street","zip":"89137","city":"Highland Park"}]},{"id":16,"name":"Noah Powell","phones":[{"type":"mobile","value":"(555) 555-9632"}],"emails":[{"type":"private","value":"npowell@example.com"}],"addresses":[{"type":"home","street":"2283 Highland Avenue","zip":"24813","city":"Lakewood"}]},{"id":17,"name":"Avery Howard","phones":[{"type":"mobile","value":"(555) 555-0856"}],"emails":[{"type":"private","value":"ahoward@example.com"}],"addresses":[{"type":"home","street":"7167 Elm Street","zip":"94968","city":"Greenwood"}]},{"id":18,"name":"Brandon Gonzalez","phones":[{"type":"mobile","value":"(555) 555-6021"}],"emails":[{"type":"private","value":"bgonzalez@example.com"}],"addresses":[{"type":"home","street":"4477 3rd Avenue","zip":"71307","city":"Shiloh"}]},{"id":19,"name":"Ethan Davis","phones":[{"type":"mobile","value":"(555) 555-1431"}],"emails":[{"type":"private","value":"edavis@example.com"}],"addresses":[{"type":"home","street":"9395 Park Avenue","zip":"27001","city":"Cleveland"}]},{"id":20,"name":"Jacob Howard","phones":[{"type":"mobile","value":"(555) 555-8526"}],"emails":[{"type":"private","value":"jhoward@example.com"}],"addresses":[{"type":"home","street":"2190 2nd Avenue","zip":"34714","city":"Milford"}]},{"id":21,"name":"Layla Hughes","phones":[{"type":"mobile","value":"(555) 555-5824"}],"emails":[{"type":"private","value":"lhughes@example.com"}],"addresses":[{"type":"home","street":"128 Route 30","zip":"88974","city":"Salem"}]},{"id":22,"name":"Christopher Powell","phones":[{"type":"mobile","value":"(555) 555-7119"}],"emails":[{"type":"private","value":"cpowell@example.com"}],"addresses":[{"type":"home","street":"1695 Pleasant Street","zip":"91258","city":"Union"}]},{"id":23,"name":"Nathan Cook","phones":[{"type":"mobile","value":"(555) 555-8216"}],"emails":[{"type":"private","value":"ncook@example.com"}],"addresses":[{"type":"home","street":"8208 Oak Street","zip":"90040","city":"Fairfield"}]},{"id":24,"name":"Aaliyah Gonzales","phones":[{"type":"mobile","value":"(555) 555-9796"}],"emails":[{"type":"private","value":"agonzales@example.com"}],"addresses":[{"type":"home","street":"9998 Green Street","zip":"84407","city":"Clinton"}]},{"id":25,"name":"Camila Howard","phones":[{"type":"mobile","value":"(555) 555-5175"}],"emails":[{"type":"private","value":"choward@example.com"}],"addresses":[{"type":"home","street":"5082 West Street","zip":"31902","city":"Washington"}]},{"id":26,"name":"Ethan Watson","phones":[{"type":"mobile","value":"(555) 555-2196"}],"emails":[{"type":"private","value":"ewatson@example.com"}],"addresses":[{"type":"home","street":"1173 Beech Street","zip":"54228","city":"Pine Grove"}]},{"id":27,"name":"Noah Morgan","phones":[{"type":"mobile","value":"(555) 555-4344"}],"emails":[{"type":"private","value":"nmorgan@example.com"}],"addresses":[{"type":"home","street":"8339 Beech Street","zip":"07677","city":"Liberty"}]},{"id":28,"name":"Brooklyn Turner","phones":[{"type":"mobile","value":"(555) 555-4974"}],"emails":[{"type":"private","value":"bturner@example.com"}],"addresses":[{"type":"home","street":"984 Beech Street","zip":"60466","city":"Lexington"}]},{"id":29,"name":"Alyssa Miller","phones":[{"type":"mobile","value":"(555) 555-8771"}],"emails":[{"type":"private","value":"amiller@example.com"}],"addresses":[{"type":"home","street":"3520 Washington Street","zip":"66837","city":"Cleveland"}]},{"id":30,"name":"Ava Perry","phones":[{"type":"mobile","value":"(555) 555-4911"}],"emails":[{"type":"private","value":"aperry@example.com"}],"addresses":[{"type":"home","street":"271 5th Avenue","zip":"11225","city":"New Hope"}]},{"id":31,"name":"Emma Peterson","phones":[{"type":"mobile","value":"(555) 555-5275"}],"emails":[{"type":"private","value":"epeterson@example.com"}],"addresses":[{"type":"home","street":"2049 Main Street","zip":"82760","city":"Pleasant Hill"}]},{"id":32,"name":"Andrew Hill","phones":[{"type":"mobile","value":"(555) 555-2925"}],"emails":[{"type":"private","value":"ahill@example.com"}],"addresses":[{"type":"home","street":"1984 Cherry Lane","zip":"93285","city":"Jackson"}]},{"id":33,"name":"Jackson Washington","phones":[{"type":"mobile","value":"(555) 555-6489"}],"emails":[{"type":"private","value":"jwashington@example.com"}],"addresses":[{"type":"home","street":"4711 Church Street","zip":"39125","city":"Hudson"}]},{"id":34,"name":"Grace Bell","phones":[{"type":"mobile","value":"(555) 555-4532"}],"emails":[{"type":"private","value":"gbell@example.com"}],"addresses":[{"type":"home","street":"2123 Main Street","zip":"52302","city":"Midway"}]},{"id":35,"name":"Isaiah Bell","phones":[{"type":"mobile","value":"(555) 555-6217"}],"emails":[{"type":"private","value":"ibell@example.com"}],"addresses":[{"type":"home","street":"156 Maple Street","zip":"60357","city":"Fairfield"}]},{"id":36,"name":"David Adams","phones":[{"type":"mobile","value":"(555) 555-9956"}],"emails":[{"type":"private","value":"dadams@example.com"}],"addresses":[{"type":"home","street":"2603 Oak Lane","zip":"30490","city":"Salem"}]},{"id":37,"name":"Lucas Allen","phones":[{"type":"mobile","value":"(555) 555-7867"}],"emails":[{"type":"private","value":"lallen@example.com"}],"addresses":[{"type":"home","street":"2606 Bridge Street","zip":"33615","city":"Pine Grove"}]},{"id":38,"name":"Alexis Johnson","phones":[{"type":"mobile","value":"(555) 555-4357"}],"emails":[{"type":"private","value":"ajohnson@example.com"}],"addresses":[{"type":"home","street":"4372 Woodland Drive","zip":"33499","city":"Oxford"}]},{"id":39,"name":"Lucas Green","phones":[{"type":"mobile","value":"(555) 555-4285"}],"emails":[{"type":"private","value":"lgreen@example.com"}],"addresses":[{"type":"home","street":"8926 Elizabeth Street","zip":"44695","city":"Pine Grove"}]},{"id":40,"name":"Lily Baker","phones":[{"type":"mobile","value":"(555) 555-0736"}],"emails":[{"type":"private","value":"lbaker@example.com"}],"addresses":[{"type":"home","street":"8451 Park Street","zip":"98189","city":"Pleasant Grove"}]},{"id":41,"name":"Victoria Robinson","phones":[{"type":"mobile","value":"(555) 555-7343"}],"emails":[{"type":"private","value":"vrobinson@example.com"}],"addresses":[{"type":"home","street":"9918 Central Avenue","zip":"90841","city":"Oxford"}]},{"id":42,"name":"Leah Clark","phones":[{"type":"mobile","value":"(555) 555-2306"}],"emails":[{"type":"private","value":"lclark@example.com"}],"addresses":[{"type":"home","street":"5912 Route 30","zip":"48799","city":"Pleasant Valley"}]},{"id":43,"name":"Owen Barnes","phones":[{"type":"mobile","value":"(555) 555-0932"}],"emails":[{"type":"private","value":"obarnes@example.com"}],"addresses":[{"type":"home","street":"4129 3rd Street West","zip":"19870","city":"Greenwood"}]},{"id":44,"name":"Nevaeh Diaz","phones":[{"type":"mobile","value":"(555) 555-4472"}],"emails":[{"type":"private","value":"ndiaz@example.com"}],"addresses":[{"type":"home","street":"6435 Hill Street","zip":"45689","city":"Cedar Grove"}]},{"id":45,"name":"Elizabeth Miller","phones":[{"type":"mobile","value":"(555) 555-4939"}],"emails":[{"type":"private","value":"emiller@example.com"}],"addresses":[{"type":"home","street":"7252 New Street","zip":"19263","city":"Springfield"}]},{"id":46,"name":"Jackson Hayes","phones":[{"type":"mobile","value":"(555) 555-4246"}],"emails":[{"type":"private","value":"jhayes@example.com"}],"addresses":[{"type":"home","street":"2798 11th Street","zip":"59232","city":"Fairfield"}]},{"id":47,"name":"Tyler Perez","phones":[{"type":"mobile","value":"(555) 555-1916"}],"emails":[{"type":"private","value":"tperez@example.com"}],"addresses":[{"type":"home","street":"7039 Route 6","zip":"81638","city":"Dover"}]},{"id":48,"name":"Isabella Brown","phones":[{"type":"mobile","value":"(555) 555-5562"}],"emails":[{"type":"private","value":"ibrown@example.com"}],"addresses":[{"type":"home","street":"2595 Bridge Street","zip":"73755","city":"Riverside"}]},{"id":49,"name":"Jonathan Barnes","phones":[{"type":"mobile","value":"(555) 555-7469"}],"emails":[{"type":"private","value":"jbarnes@example.com"}],"addresses":[{"type":"home","street":"8931 Pine Street","zip":"31629","city":"New Hope"}]},{"id":50,"name":"Brooklyn Lewis","phones":[{"type":"mobile","value":"(555) 555-5803"}],"emails":[{"type":"private","value":"blewis@example.com"}],"addresses":[{"type":"home","street":"9377 Beech Street","zip":"29517","city":"Milton"}]},{"id":51,"name":"Isaac Hall","phones":[{"type":"mobile","value":"(555) 555-2992"}],"emails":[{"type":"private","value":"ihall@example.com"}],"addresses":[{"type":"home","street":"9673 Adams Street","zip":"49993","city":"Ashland"}]},{"id":52,"name":"Tyler Cooper","phones":[{"type":"mobile","value":"(555) 555-5735"}],"emails":[{"type":"private","value":"tcooper@example.com"}],"addresses":[{"type":"home","street":"9156 3rd Street West","zip":"83192","city":"New Hope"}]},{"id":53,"name":"Jacob Johnson","phones":[{"type":"mobile","value":"(555) 555-7548"}],"emails":[{"type":"private","value":"jjohnson@example.com"}],"addresses":[{"type":"home","street":"222 1st Avenue","zip":"31910","city":"Pleasant Grove"}]},{"id":54,"name":"Aiden Ramirez","phones":[{"type":"mobile","value":"(555) 555-9231"}],"emails":[{"type":"private","value":"aramirez@example.com"}],"addresses":[{"type":"home","street":"8201 Jefferson Avenue","zip":"20798","city":"Concord"}]},{"id":55,"name":"Aaliyah Gonzales","phones":[{"type":"mobile","value":"(555) 555-5665"}],"emails":[{"type":"private","value":"agonzales@example.com"}],"addresses":[{"type":"home","street":"7865 State Street","zip":"62856","city":"Midway"}]},{"id":56,"name":"Ashley Rodriguez","phones":[{"type":"mobile","value":"(555) 555-4689"}],"emails":[{"type":"private","value":"arodriguez@example.com"}],"addresses":[{"type":"home","street":"3406 Washington Street","zip":"71382","city":"Shiloh"}]},{"id":57,"name":"Victoria Rivera","phones":[{"type":"mobile","value":"(555) 555-5725"}],"emails":[{"type":"private","value":"vrivera@example.com"}],"addresses":[{"type":"home","street":"1436 Route 30","zip":"31289","city":"Winchester"}]},{"id":58,"name":"Anthony Jenkins","phones":[{"type":"mobile","value":"(555) 555-1557"}],"emails":[{"type":"private","value":"ajenkins@example.com"}],"addresses":[{"type":"home","street":"3239 1st Avenue","zip":"88948","city":"Forest Hills"}]},{"id":59,"name":"Chloe Howard","phones":[{"type":"mobile","value":"(555) 555-7401"}],"emails":[{"type":"private","value":"choward@example.com"}],"addresses":[{"type":"home","street":"1648 Park Avenue","zip":"20638","city":"Fairfield"}]},{"id":60,"name":"Anthony Wright","phones":[{"type":"mobile","value":"(555) 555-3099"}],"emails":[{"type":"private","value":"awright@example.com"}],"addresses":[{"type":"home","street":"8850 2nd Avenue","zip":"81970","city":"Milton"}]},{"id":61,"name":"Matthew Bennett","phones":[{"type":"mobile","value":"(555) 555-6209"}],"emails":[{"type":"private","value":"mbennett@example.com"}],"addresses":[{"type":"home","street":"1173 Spring Street","zip":"78214","city":"Fairfield"}]},{"id":62,"name":"Gavin Foster","phones":[{"type":"mobile","value":"(555) 555-0820"}],"emails":[{"type":"private","value":"gfoster@example.com"}],"addresses":[{"type":"home","street":"3733 Grove Street","zip":"94275","city":"Shady Grove"}]},{"id":63,"name":"Matthew Stewart","phones":[{"type":"mobile","value":"(555) 555-0590"}],"emails":[{"type":"private","value":"mstewart@example.com"}],"addresses":[{"type":"home","street":"3615 Monroe Street","zip":"76409","city":"Arlington"}]},{"id":64,"name":"Anthony Foster","phones":[{"type":"mobile","value":"(555) 555-8993"}],"emails":[{"type":"private","value":"afoster@example.com"}],"addresses":[{"type":"home","street":"6523 Jefferson Street","zip":"55744","city":"Greenwood"}]},{"id":65,"name":"Abigail Allen","phones":[{"type":"mobile","value":"(555) 555-4768"}],"emails":[{"type":"private","value":"aallen@example.com"}],"addresses":[{"type":"home","street":"4456 State Street","zip":"34706","city":"Dayton"}]},{"id":66,"name":"Carter Rodriguez","phones":[{"type":"mobile","value":"(555) 555-7828"}],"emails":[{"type":"private","value":"crodriguez@example.com"}],"addresses":[{"type":"home","street":"8657 Main Street South","zip":"14916","city":"Pleasant Hill"}]},{"id":67,"name":"Christopher Parker","phones":[{"type":"mobile","value":"(555) 555-0212"}],"emails":[{"type":"private","value":"cparker@example.com"}],"addresses":[{"type":"home","street":"6109 Route 6","zip":"32081","city":"Glendale"}]},{"id":68,"name":"Mason Reed","phones":[{"type":"mobile","value":"(555) 555-1632"}],"emails":[{"type":"private","value":"mreed@example.com"}],"addresses":[{"type":"home","street":"705 Route 6","zip":"66152","city":"Georgetown"}]},{"id":69,"name":"Nathan Martin","phones":[{"type":"mobile","value":"(555) 555-8338"}],"emails":[{"type":"private","value":"nmartin@example.com"}],"addresses":[{"type":"home","street":"5203 State Street","zip":"33014","city":"Milford"}]},{"id":70,"name":"Lily Griffin","phones":[{"type":"mobile","value":"(555) 555-6889"}],"emails":[{"type":"private","value":"lgriffin@example.com"}],"addresses":[{"type":"home","street":"4045 Central Avenue","zip":"69018","city":"Lakewood"}]},{"id":71,"name":"Anthony Howard","phones":[{"type":"mobile","value":"(555) 555-4933"}],"emails":[{"type":"private","value":"ahoward@example.com"}],"addresses":[{"type":"home","street":"7658 12th Street","zip":"48954","city":"Lakeview"}]},{"id":72,"name":"Natalie Griffin","phones":[{"type":"mobile","value":"(555) 555-2096"}],"emails":[{"type":"private","value":"ngriffin@example.com"}],"addresses":[{"type":"home","street":"4270 Route 6","zip":"78488","city":"Fairview"}]},{"id":73,"name":"Lucas Bailey","phones":[{"type":"mobile","value":"(555) 555-9377"}],"emails":[{"type":"private","value":"lbailey@example.com"}],"addresses":[{"type":"home","street":"1107 Valley Road","zip":"35578","city":"Dover"}]},{"id":74,"name":"Evelyn Martin","phones":[{"type":"mobile","value":"(555) 555-6512"}],"emails":[{"type":"private","value":"emartin@example.com"}],"addresses":[{"type":"home","street":"9650 River Road","zip":"49822","city":"Highland Park"}]},{"id":75,"name":"Jonathan Hall","phones":[{"type":"mobile","value":"(555) 555-3605"}],"emails":[{"type":"private","value":"jhall@example.com"}],"addresses":[{"type":"home","street":"8908 Valley Road","zip":"97233","city":"Arlington"}]},{"id":76,"name":"Joshua Nelson","phones":[{"type":"mobile","value":"(555) 555-4645"}],"emails":[{"type":"private","value":"jnelson@example.com"}],"addresses":[{"type":"home","street":"8922 Broad Street","zip":"17867","city":"Lexington"}]},{"id":77,"name":"Jack Ward","phones":[{"type":"mobile","value":"(555) 555-3961"}],"emails":[{"type":"private","value":"jward@example.com"}],"addresses":[{"type":"home","street":"4319 Route 32","zip":"97697","city":"Concord"}]},{"id":78,"name":"Brandon Butler","phones":[{"type":"mobile","value":"(555) 555-6774"}],"emails":[{"type":"private","value":"bbutler@example.com"}],"addresses":[{"type":"home","street":"2297 Market Street","zip":"45900","city":"Highland Park"}]},{"id":79,"name":"Khloe Murphy","phones":[{"type":"mobile","value":"(555) 555-8543"}],"emails":[{"type":"private","value":"kmurphy@example.com"}],"addresses":[{"type":"home","street":"7683 Franklin Street","zip":"36769","city":"Clinton"}]},{"id":80,"name":"Aaliyah Cooper","phones":[{"type":"mobile","value":"(555) 555-4205"}],"emails":[{"type":"private","value":"acooper@example.com"}],"addresses":[{"type":"home","street":"1024 Jackson Street","zip":"99338","city":"Dover"}]},{"id":81,"name":"Allison Evans","phones":[{"type":"mobile","value":"(555) 555-5212"}],"emails":[{"type":"private","value":"aevans@example.com"}],"addresses":[{"type":"home","street":"1007 Maple Street","zip":"97012","city":"Cleveland"}]},{"id":82,"name":"Brianna Hall","phones":[{"type":"mobile","value":"(555) 555-2155"}],"emails":[{"type":"private","value":"bhall@example.com"}],"addresses":[{"type":"home","street":"7900 Winding Way","zip":"94217","city":"Mount Pleasant"}]},{"id":83,"name":"Victoria Rodriguez","phones":[{"type":"mobile","value":"(555) 555-1114"}],"emails":[{"type":"private","value":"vrodriguez@example.com"}],"addresses":[{"type":"home","street":"4540 Front Street","zip":"38242","city":"Auburn"}]},{"id":84,"name":"Carter Cook","phones":[{"type":"mobile","value":"(555) 555-5254"}],"emails":[{"type":"private","value":"ccook@example.com"}],"addresses":[{"type":"home","street":"142 Maple Avenue","zip":"79475","city":"Dayton"}]},{"id":85,"name":"Jackson Gonzales","phones":[{"type":"mobile","value":"(555) 555-3674"}],"emails":[{"type":"private","value":"jgonzales@example.com"}],"addresses":[{"type":"home","street":"6105 Cherry Lane","zip":"96095","city":"Union"}]},{"id":86,"name":"Evan Moore","phones":[{"type":"mobile","value":"(555) 555-7626"}],"emails":[{"type":"private","value":"emoore@example.com"}],"addresses":[{"type":"home","street":"8628 Chestnut Street","zip":"45726","city":"Union"}]},{"id":87,"name":"Mason Campbell","phones":[{"type":"mobile","value":"(555) 555-4473"}],"emails":[{"type":"private","value":"mcampbell@example.com"}],"addresses":[{"type":"home","street":"8482 Spring Street","zip":"07392","city":"Cleveland"}]},{"id":88,"name":"Hailey Taylor","phones":[{"type":"mobile","value":"(555) 555-4681"}],"emails":[{"type":"private","value":"htaylor@example.com"}],"addresses":[{"type":"home","street":"3200 2nd Street West","zip":"61932","city":"Shady Grove"}]},{"id":89,"name":"Claire Parker","phones":[{"type":"mobile","value":"(555) 555-4412"}],"emails":[{"type":"private","value":"cparker@example.com"}],"addresses":[{"type":"home","street":"7782 Cherry Street","zip":"52166","city":"Centerville"}]},{"id":90,"name":"Grace Anderson","phones":[{"type":"mobile","value":"(555) 555-2417"}],"emails":[{"type":"private","value":"ganderson@example.com"}],"addresses":[{"type":"home","street":"2619 Liberty Street","zip":"19970","city":"Shiloh"}]},{"id":91,"name":"Brooklyn Nelson","phones":[{"type":"mobile","value":"(555) 555-9787"}],"emails":[{"type":"private","value":"bnelson@example.com"}],"addresses":[{"type":"home","street":"3160 East Street","zip":"27312","city":"Auburn"}]},{"id":92,"name":"Jayden Harris","phones":[{"type":"mobile","value":"(555) 555-1626"}],"emails":[{"type":"private","value":"jharris@example.com"}],"addresses":[{"type":"home","street":"2450 Elm Street","zip":"39108","city":"Troy"}]},{"id":93,"name":"Elijah Taylor","phones":[{"type":"mobile","value":"(555) 555-4673"}],"emails":[{"type":"private","value":"etaylor@example.com"}],"addresses":[{"type":"home","street":"5547 Bridge Street","zip":"97816","city":"Madison"}]},{"id":94,"name":"Hailey Sanchez","phones":[{"type":"mobile","value":"(555) 555-1333"}],"emails":[{"type":"private","value":"hsanchez@example.com"}],"addresses":[{"type":"home","street":"1704 Union Street","zip":"45923","city":"Pleasant Valley"}]},{"id":95,"name":"Landon Richardson","phones":[{"type":"mobile","value":"(555) 555-1952"}],"emails":[{"type":"private","value":"lrichardson@example.com"}],"addresses":[{"type":"home","street":"7924 Oak Street","zip":"55965","city":"Salem"}]},{"id":96,"name":"Nevaeh Phillips","phones":[{"type":"mobile","value":"(555) 555-1139"}],"emails":[{"type":"private","value":"nphillips@example.com"}],"addresses":[{"type":"home","street":"90 4th Street West","zip":"52021","city":"Newport"}]},{"id":97,"name":"Ryan Rivera","phones":[{"type":"mobile","value":"(555) 555-3375"}],"emails":[{"type":"private","value":"rrivera@example.com"}],"addresses":[{"type":"home","street":"6335 2nd Avenue","zip":"07476","city":"Centerville"}]},{"id":98,"name":"David Howard","phones":[{"type":"mobile","value":"(555) 555-8294"}],"emails":[{"type":"private","value":"dhoward@example.com"}],"addresses":[{"type":"home","street":"8385 Lincoln Avenue","zip":"94190","city":"Cleveland"}]},{"id":99,"name":"Sophia Nelson","phones":[{"type":"mobile","value":"(555) 555-4430"}],"emails":[{"type":"private","value":"snelson@example.com"}],"addresses":[{"type":"home","street":"6260 Union Street","zip":"79790","city":"Manchester"}]},{"id":100,"name":"Gavin Miller","phones":[{"type":"mobile","value":"(555) 555-0632"}],"emails":[{"type":"private","value":"gmiller@example.com"}],"addresses":[{"type":"home","street":"1264 Jefferson Avenue","zip":"31583","city":"Jackson"}]},{"id":101,"name":"Alexander Griffin","phones":[{"type":"mobile","value":"(555) 555-7942"}],"emails":[{"type":"private","value":"agriffin@example.com"}],"addresses":[{"type":"home","street":"7919 3rd Street","zip":"01225","city":"Hudson"}]},{"id":102,"name":"Elijah Clark","phones":[{"type":"mobile","value":"(555) 555-0988"}],"emails":[{"type":"private","value":"eclark@example.com"}],"addresses":[{"type":"home","street":"9818 Broadway","zip":"90889","city":"Arlington"}]},{"id":103,"name":"Alyssa Cook","phones":[{"type":"mobile","value":"(555) 555-8040"}],"emails":[{"type":"private","value":"acook@example.com"}],"addresses":[{"type":"home","street":"6628 Pennsylvania Avenue","zip":"62790","city":"Riverside"}]},{"id":104,"name":"Audrey Patterson","phones":[{"type":"mobile","value":"(555) 555-6491"}],"emails":[{"type":"private","value":"apatterson@example.com"}],"addresses":[{"type":"home","street":"7955 Adams Street","zip":"20872","city":"Oak Hill"}]},{"id":105,"name":"Tyler Brown","phones":[{"type":"mobile","value":"(555) 555-6355"}],"emails":[{"type":"private","value":"tbrown@example.com"}],"addresses":[{"type":"home","street":"1744 Ridge Road","zip":"31043","city":"Jackson"}]},{"id":106,"name":"Chloe Scott","phones":[{"type":"mobile","value":"(555) 555-0483"}],"emails":[{"type":"private","value":"cscott@example.com"}],"addresses":[{"type":"home","street":"3423 Beech Street","zip":"17013","city":"Burlington"}]},{"id":107,"name":"Gabriella Gray","phones":[{"type":"mobile","value":"(555) 555-1955"}],"emails":[{"type":"private","value":"ggray@example.com"}],"addresses":[{"type":"home","street":"9161 Jackson Street","zip":"13582","city":"Five Points"}]},{"id":108,"name":"Jackson Peterson","phones":[{"type":"mobile","value":"(555) 555-6054"}],"emails":[{"type":"private","value":"jpeterson@example.com"}],"addresses":[{"type":"home","street":"9992 New Street","zip":"13464","city":"Cedar Grove"}]},{"id":109,"name":"Liam Gonzales","phones":[{"type":"mobile","value":"(555) 555-6811"}],"emails":[{"type":"private","value":"lgonzales@example.com"}],"addresses":[{"type":"home","street":"6866 Elizabeth Street","zip":"55551","city":"Greenville"}]},{"id":110,"name":"Luke Edwards","phones":[{"type":"mobile","value":"(555) 555-2944"}],"emails":[{"type":"private","value":"ledwards@example.com"}],"addresses":[{"type":"home","street":"7561 Maple Avenue","zip":"02737","city":"Fairfield"}]},{"id":111,"name":"Owen Nelson","phones":[{"type":"mobile","value":"(555) 555-6420"}],"emails":[{"type":"private","value":"onelson@example.com"}],"addresses":[{"type":"home","street":"1966 Route 1","zip":"72708","city":"Fairfield"}]},{"id":112,"name":"Sarah Rogers","phones":[{"type":"mobile","value":"(555) 555-6160"}],"emails":[{"type":"private","value":"srogers@example.com"}],"addresses":[{"type":"home","street":"8783 Elizabeth Street","zip":"94216","city":"Cedar Grove"}]},{"id":113,"name":"Audrey Flores","phones":[{"type":"mobile","value":"(555) 555-4839"}],"emails":[{"type":"private","value":"aflores@example.com"}],"addresses":[{"type":"home","street":"4640 Jackson Street","zip":"50990","city":"Burlington"}]},{"id":114,"name":"Julian White","phones":[{"type":"mobile","value":"(555) 555-9002"}],"emails":[{"type":"private","value":"jwhite@example.com"}],"addresses":[{"type":"home","street":"1886 Spruce Street","zip":"81205","city":"New Hope"}]},{"id":115,"name":"Isabella Martin","phones":[{"type":"mobile","value":"(555) 555-2494"}],"emails":[{"type":"private","value":"imartin@example.com"}],"addresses":[{"type":"home","street":"8135 New Street","zip":"92611","city":"Midway"}]},{"id":116,"name":"Dylan Gonzales","phones":[{"type":"mobile","value":"(555) 555-8728"}],"emails":[{"type":"private","value":"dgonzales@example.com"}],"addresses":[{"type":"home","street":"4075 Adams Street","zip":"15657","city":"Georgetown"}]},{"id":117,"name":"David Brown","phones":[{"type":"mobile","value":"(555) 555-5037"}],"emails":[{"type":"private","value":"dbrown@example.com"}],"addresses":[{"type":"home","street":"3401 Washington Avenue","zip":"54026","city":"Newport"}]},{"id":118,"name":"Jacob Ramirez","phones":[{"type":"mobile","value":"(555) 555-0578"}],"emails":[{"type":"private","value":"jramirez@example.com"}],"addresses":[{"type":"home","street":"4588 Market Street","zip":"06305","city":"Auburn"}]},{"id":119,"name":"Mason Turner","phones":[{"type":"mobile","value":"(555) 555-4163"}],"emails":[{"type":"private","value":"mturner@example.com"}],"addresses":[{"type":"home","street":"1421 11th Street","zip":"23279","city":"Marion"}]},{"id":120,"name":"Mason Robinson","phones":[{"type":"mobile","value":"(555) 555-9535"}],"emails":[{"type":"private","value":"mrobinson@example.com"}],"addresses":[{"type":"home","street":"8771 Park Street","zip":"22620","city":"Greenville"}]},{"id":121,"name":"Elizabeth Barnes","phones":[{"type":"mobile","value":"(555) 555-9432"}],"emails":[{"type":"private","value":"ebarnes@example.com"}],"addresses":[{"type":"home","street":"3528 Park Street","zip":"24928","city":"Oxford"}]},{"id":122,"name":"Julian Kelly","phones":[{"type":"mobile","value":"(555) 555-4530"}],"emails":[{"type":"private","value":"jkelly@example.com"}],"addresses":[{"type":"home","street":"7894 Water Street","zip":"14022","city":"Five Points"}]},{"id":123,"name":"Khloe Carter","phones":[{"type":"mobile","value":"(555) 555-9541"}],"emails":[{"type":"private","value":"kcarter@example.com"}],"addresses":[{"type":"home","street":"1172 Cherry Lane","zip":"86582","city":"Clinton"}]},{"id":124,"name":"Matthew Garcia","phones":[{"type":"mobile","value":"(555) 555-4880"}],"emails":[{"type":"private","value":"mgarcia@example.com"}],"addresses":[{"type":"home","street":"4948 Park Avenue","zip":"07310","city":"Five Points"}]},{"id":125,"name":"Elizabeth Price","phones":[{"type":"mobile","value":"(555) 555-2050"}],"emails":[{"type":"private","value":"eprice@example.com"}],"addresses":[{"type":"home","street":"9871 Hillside Avenue","zip":"80692","city":"Burlington"}]},{"id":126,"name":"Liam Taylor","phones":[{"type":"mobile","value":"(555) 555-4682"}],"emails":[{"type":"private","value":"ltaylor@example.com"}],"addresses":[{"type":"home","street":"1467 Locust Street","zip":"27911","city":"Milford"}]},{"id":127,"name":"Aiden Howard","phones":[{"type":"mobile","value":"(555) 555-0673"}],"emails":[{"type":"private","value":"ahoward@example.com"}],"addresses":[{"type":"home","street":"421 5th Street","zip":"45956","city":"Winchester"}]},{"id":128,"name":"Riley Phillips","phones":[{"type":"mobile","value":"(555) 555-4215"}],"emails":[{"type":"private","value":"rphillips@example.com"}],"addresses":[{"type":"home","street":"3219 Spruce Street","zip":"53354","city":"Manchester"}]},{"id":129,"name":"Samuel Ramirez","phones":[{"type":"mobile","value":"(555) 555-2776"}],"emails":[{"type":"private","value":"sramirez@example.com"}],"addresses":[{"type":"home","street":"7121 Park Place","zip":"44519","city":"Forest Hills"}]},{"id":130,"name":"Brooklyn Wright","phones":[{"type":"mobile","value":"(555) 555-9305"}],"emails":[{"type":"private","value":"bwright@example.com"}],"addresses":[{"type":"home","street":"4681 Valley Road","zip":"38929","city":"Shady Grove"}]},{"id":131,"name":"Samantha Sanchez","phones":[{"type":"mobile","value":"(555) 555-9820"}],"emails":[{"type":"private","value":"ssanchez@example.com"}],"addresses":[{"type":"home","street":"7791 Center Street","zip":"60045","city":"Cedar Grove"}]},{"id":132,"name":"Nicholas Taylor","phones":[{"type":"mobile","value":"(555) 555-5960"}],"emails":[{"type":"private","value":"ntaylor@example.com"}],"addresses":[{"type":"home","street":"2556 Route 30","zip":"06271","city":"Fairfield"}]},{"id":133,"name":"Ashley Sanchez","phones":[{"type":"mobile","value":"(555) 555-6228"}],"emails":[{"type":"private","value":"asanchez@example.com"}],"addresses":[{"type":"home","street":"179 Dogwood Drive","zip":"61046","city":"Five Points"}]},{"id":134,"name":"Zoe Taylor","phones":[{"type":"mobile","value":"(555) 555-6947"}],"emails":[{"type":"private","value":"ztaylor@example.com"}],"addresses":[{"type":"home","street":"2045 Dogwood Drive","zip":"73740","city":"Springfield"}]},{"id":135,"name":"Isaac Long","phones":[{"type":"mobile","value":"(555) 555-9984"}],"emails":[{"type":"private","value":"ilong@example.com"}],"addresses":[{"type":"home","street":"5375 12th Street","zip":"34521","city":"Salem"}]},{"id":136,"name":"Owen Davis","phones":[{"type":"mobile","value":"(555) 555-0556"}],"emails":[{"type":"private","value":"odavis@example.com"}],"addresses":[{"type":"home","street":"2342 Maple Avenue","zip":"76877","city":"Springfield"}]},{"id":137,"name":"Victoria Garcia","phones":[{"type":"mobile","value":"(555) 555-0981"}],"emails":[{"type":"private","value":"vgarcia@example.com"}],"addresses":[{"type":"home","street":"680 Front Street","zip":"93465","city":"Jackson"}]},{"id":138,"name":"Jayden Alexander","phones":[{"type":"mobile","value":"(555) 555-8210"}],"emails":[{"type":"private","value":"jalexander@example.com"}],"addresses":[{"type":"home","street":"1168 Prospect Street","zip":"43620","city":"Oakland"}]},{"id":139,"name":"Jackson Sanchez","phones":[{"type":"mobile","value":"(555) 555-8784"}],"emails":[{"type":"private","value":"jsanchez@example.com"}],"addresses":[{"type":"home","street":"3905 Academy Street","zip":"07309","city":"Clayton"}]},{"id":140,"name":"Taylor Williams","phones":[{"type":"mobile","value":"(555) 555-7541"}],"emails":[{"type":"private","value":"twilliams@example.com"}],"addresses":[{"type":"home","street":"9315 Jackson Street","zip":"01941","city":"New Hope"}]},{"id":141,"name":"Owen Reed","phones":[{"type":"mobile","value":"(555) 555-5750"}],"emails":[{"type":"private","value":"oreed@example.com"}],"addresses":[{"type":"home","street":"5902 Center Street","zip":"15475","city":"Arlington"}]},{"id":142,"name":"Dylan Taylor","phones":[{"type":"mobile","value":"(555) 555-7752"}],"emails":[{"type":"private","value":"dtaylor@example.com"}],"addresses":[{"type":"home","street":"2175 Academy Street","zip":"33646","city":"Madison"}]},{"id":143,"name":"Mason Brown","phones":[{"type":"mobile","value":"(555) 555-1730"}],"emails":[{"type":"private","value":"mbrown@example.com"}],"addresses":[{"type":"home","street":"6338 Mill Street","zip":"44455","city":"Salem"}]},{"id":144,"name":"Isabella Miller","phones":[{"type":"mobile","value":"(555) 555-6859"}],"emails":[{"type":"private","value":"imiller@example.com"}],"addresses":[{"type":"home","street":"908 Front Street","zip":"60899","city":"Oakland"}]},{"id":145,"name":"Alyssa Collins","phones":[{"type":"mobile","value":"(555) 555-6475"}],"emails":[{"type":"private","value":"acollins@example.com"}],"addresses":[{"type":"home","street":"7843 1st Avenue","zip":"53227","city":"Arlington"}]},{"id":146,"name":"Alyssa Perry","phones":[{"type":"mobile","value":"(555) 555-4130"}],"emails":[{"type":"private","value":"aperry@example.com"}],"addresses":[{"type":"home","street":"5878 Main Street North","zip":"62956","city":"Shady Grove"}]},{"id":147,"name":"Sophia Parker","phones":[{"type":"mobile","value":"(555) 555-5272"}],"emails":[{"type":"private","value":"sparker@example.com"}],"addresses":[{"type":"home","street":"3161 Market Street","zip":"93464","city":"Shady Grove"}]},{"id":148,"name":"Hailey Nelson","phones":[{"type":"mobile","value":"(555) 555-1158"}],"emails":[{"type":"private","value":"hnelson@example.com"}],"addresses":[{"type":"home","street":"8460 5th Avenue","zip":"34213","city":"Shady Grove"}]},{"id":149,"name":"Jackson Evans","phones":[{"type":"mobile","value":"(555) 555-0574"}],"emails":[{"type":"private","value":"jevans@example.com"}],"addresses":[{"type":"home","street":"5694 River Street","zip":"18314","city":"Newport"}]},{"id":150,"name":"Joseph Peterson","phones":[{"type":"mobile","value":"(555) 555-9324"}],"emails":[{"type":"private","value":"jpeterson@example.com"}],"addresses":[{"type":"home","street":"4332 Mill Street","zip":"56222","city":"Concord"}]},{"id":151,"name":"Sarah Hill","phones":[{"type":"mobile","value":"(555) 555-3803"}],"emails":[{"type":"private","value":"shill@example.com"}],"addresses":[{"type":"home","street":"8403 Route 1","zip":"44801","city":"Oak Hill"}]},{"id":152,"name":"Addison Evans","phones":[{"type":"mobile","value":"(555) 555-3248"}],"emails":[{"type":"private","value":"aevans@example.com"}],"addresses":[{"type":"home","street":"8761 5th Avenue","zip":"61923","city":"Lakeview"}]},{"id":153,"name":"Matthew Gonzales","phones":[{"type":"mobile","value":"(555) 555-9234"}],"emails":[{"type":"private","value":"mgonzales@example.com"}],"addresses":[{"type":"home","street":"7756 Main Street North","zip":"96702","city":"New Hope"}]},{"id":154,"name":"Jackson Morris","phones":[{"type":"mobile","value":"(555) 555-8334"}],"emails":[{"type":"private","value":"jmorris@example.com"}],"addresses":[{"type":"home","street":"7905 Vine Street","zip":"30478","city":"Union"}]},{"id":155,"name":"Alexis Perez","phones":[{"type":"mobile","value":"(555) 555-1636"}],"emails":[{"type":"private","value":"aperez@example.com"}],"addresses":[{"type":"home","street":"7217 Central Avenue","zip":"91918","city":"Milford"}]},{"id":156,"name":"Gabriel Griffin","phones":[{"type":"mobile","value":"(555) 555-4810"}],"emails":[{"type":"private","value":"ggriffin@example.com"}],"addresses":[{"type":"home","street":"5693 Ridge Road","zip":"99582","city":"Auburn"}]},{"id":157,"name":"Claire Butler","phones":[{"type":"mobile","value":"(555) 555-9745"}],"emails":[{"type":"private","value":"cbutler@example.com"}],"addresses":[{"type":"home","street":"9627 1st Avenue","zip":"15859","city":"Cleveland"}]},{"id":158,"name":"Noah Williams","phones":[{"type":"mobile","value":"(555) 555-2654"}],"emails":[{"type":"private","value":"nwilliams@example.com"}],"addresses":[{"type":"home","street":"8218 3rd Street","zip":"38709","city":"Mount Pleasant"}]},{"id":159,"name":"Isaac Gonzalez","phones":[{"type":"mobile","value":"(555) 555-3114"}],"emails":[{"type":"private","value":"igonzalez@example.com"}],"addresses":[{"type":"home","street":"6850 Adams Street","zip":"47546","city":"Milton"}]},{"id":160,"name":"Jayden Ward","phones":[{"type":"mobile","value":"(555) 555-6664"}],"emails":[{"type":"private","value":"jward@example.com"}],"addresses":[{"type":"home","street":"6612 Railroad Street","zip":"11986","city":"Pleasant Grove"}]},{"id":161,"name":"Abigail Henderson","phones":[{"type":"mobile","value":"(555) 555-4837"}],"emails":[{"type":"private","value":"ahenderson@example.com"}],"addresses":[{"type":"home","street":"3995 West Street","zip":"11823","city":"Clayton"}]},{"id":162,"name":"William Gonzalez","phones":[{"type":"mobile","value":"(555) 555-7850"}],"emails":[{"type":"private","value":"wgonzalez@example.com"}],"addresses":[{"type":"home","street":"7253 Academy Street","zip":"61861","city":"Arlington"}]},{"id":163,"name":"Brooklyn Reed","phones":[{"type":"mobile","value":"(555) 555-1191"}],"emails":[{"type":"private","value":"breed@example.com"}],"addresses":[{"type":"home","street":"7030 Elizabeth Street","zip":"86043","city":"Mount Pleasant"}]},{"id":164,"name":"Tyler Jones","phones":[{"type":"mobile","value":"(555) 555-5758"}],"emails":[{"type":"private","value":"tjones@example.com"}],"addresses":[{"type":"home","street":"4506 Dogwood Drive","zip":"32267","city":"Pleasant Valley"}]},{"id":165,"name":"Brayden Roberts","phones":[{"type":"mobile","value":"(555) 555-8929"}],"emails":[{"type":"private","value":"broberts@example.com"}],"addresses":[{"type":"home","street":"7912 Market Street","zip":"58952","city":"Kingston"}]},{"id":166,"name":"Lucas Rogers","phones":[{"type":"mobile","value":"(555) 555-4025"}],"emails":[{"type":"private","value":"lrogers@example.com"}],"addresses":[{"type":"home","street":"1632 Prospect Street","zip":"19927","city":"Shady Grove"}]},{"id":167,"name":"Nicholas Rivera","phones":[{"type":"mobile","value":"(555) 555-2571"}],"emails":[{"type":"private","value":"nrivera@example.com"}],"addresses":[{"type":"home","street":"6876 Prospect Street","zip":"60681","city":"Kingston"}]},{"id":168,"name":"Evan Howard","phones":[{"type":"mobile","value":"(555) 555-3807"}],"emails":[{"type":"private","value":"ehoward@example.com"}],"addresses":[{"type":"home","street":"468 Vine Street","zip":"96920","city":"Fairfield"}]},{"id":169,"name":"William Barnes","phones":[{"type":"mobile","value":"(555) 555-1022"}],"emails":[{"type":"private","value":"wbarnes@example.com"}],"addresses":[{"type":"home","street":"7248 Center Street","zip":"54527","city":"Forest Hills"}]},{"id":170,"name":"Lucas Henderson","phones":[{"type":"mobile","value":"(555) 555-8186"}],"emails":[{"type":"private","value":"lhenderson@example.com"}],"addresses":[{"type":"home","street":"5568 School Street","zip":"36108","city":"Oakland"}]},{"id":171,"name":"Natalie Moore","phones":[{"type":"mobile","value":"(555) 555-3020"}],"emails":[{"type":"private","value":"nmoore@example.com"}],"addresses":[{"type":"home","street":"1787 Hickory Lane","zip":"24717","city":"Greenwood"}]},{"id":172,"name":"Zoe Bennett","phones":[{"type":"mobile","value":"(555) 555-4780"}],"emails":[{"type":"private","value":"zbennett@example.com"}],"addresses":[{"type":"home","street":"8774 Central Avenue","zip":"44981","city":"Troy"}]},{"id":173,"name":"Isaiah Wood","phones":[{"type":"mobile","value":"(555) 555-9839"}],"emails":[{"type":"private","value":"iwood@example.com"}],"addresses":[{"type":"home","street":"8089 Railroad Street","zip":"46486","city":"Washington"}]},{"id":174,"name":"Sofia Howard","phones":[{"type":"mobile","value":"(555) 555-6190"}],"emails":[{"type":"private","value":"showard@example.com"}],"addresses":[{"type":"home","street":"2988 High Street","zip":"18627","city":"Pleasant Grove"}]},{"id":175,"name":"Isabella Butler","phones":[{"type":"mobile","value":"(555) 555-9390"}],"emails":[{"type":"private","value":"ibutler@example.com"}],"addresses":[{"type":"home","street":"7236 11th Street","zip":"92084","city":"Kingston"}]},{"id":176,"name":"Mia Coleman","phones":[{"type":"mobile","value":"(555) 555-1594"}],"emails":[{"type":"private","value":"mcoleman@example.com"}],"addresses":[{"type":"home","street":"5172 School Street","zip":"99805","city":"Mount Pleasant"}]},{"id":177,"name":"Samuel Evans","phones":[{"type":"mobile","value":"(555) 555-6898"}],"emails":[{"type":"private","value":"sevans@example.com"}],"addresses":[{"type":"home","street":"3 Union Street","zip":"13458","city":"Cleveland"}]},{"id":178,"name":"Mia Sanchez","phones":[{"type":"mobile","value":"(555) 555-2515"}],"emails":[{"type":"private","value":"msanchez@example.com"}],"addresses":[{"type":"home","street":"7560 Spring Street","zip":"33305","city":"Hudson"}]},{"id":179,"name":"Jackson Henderson","phones":[{"type":"mobile","value":"(555) 555-3582"}],"emails":[{"type":"private","value":"jhenderson@example.com"}],"addresses":[{"type":"home","street":"26 Monroe Street","zip":"51789","city":"Arlington"}]},{"id":180,"name":"Christopher Rivera","phones":[{"type":"mobile","value":"(555) 555-2170"}],"emails":[{"type":"private","value":"crivera@example.com"}],"addresses":[{"type":"home","street":"8271 3rd Street","zip":"79661","city":"Oak Hill"}]},{"id":181,"name":"Ava Phillips","phones":[{"type":"mobile","value":"(555) 555-5506"}],"emails":[{"type":"private","value":"aphillips@example.com"}],"addresses":[{"type":"home","street":"6686 12th Street","zip":"96060","city":"Union"}]},{"id":182,"name":"Caleb Taylor","phones":[{"type":"mobile","value":"(555) 555-2062"}],"emails":[{"type":"private","value":"ctaylor@example.com"}],"addresses":[{"type":"home","street":"897 Meadow Lane","zip":"93438","city":"Manchester"}]},{"id":183,"name":"Aaron James","phones":[{"type":"mobile","value":"(555) 555-4217"}],"emails":[{"type":"private","value":"ajames@example.com"}],"addresses":[{"type":"home","street":"759 New Street","zip":"97081","city":"Oxford"}]},{"id":184,"name":"Aaliyah Long","phones":[{"type":"mobile","value":"(555) 555-1000"}],"emails":[{"type":"private","value":"along@example.com"}],"addresses":[{"type":"home","street":"2090 Route 30","zip":"53559","city":"Five Points"}]},{"id":185,"name":"Owen Brown","phones":[{"type":"mobile","value":"(555) 555-9271"}],"emails":[{"type":"private","value":"obrown@example.com"}],"addresses":[{"type":"home","street":"2563 Main Street West","zip":"04937","city":"Ashland"}]},{"id":186,"name":"Benjamin Morgan","phones":[{"type":"mobile","value":"(555) 555-2471"}],"emails":[{"type":"private","value":"bmorgan@example.com"}],"addresses":[{"type":"home","street":"901 Broad Street","zip":"75330","city":"New Hope"}]},{"id":187,"name":"Khloe Foster","phones":[{"type":"mobile","value":"(555) 555-2158"}],"emails":[{"type":"private","value":"kfoster@example.com"}],"addresses":[{"type":"home","street":"458 Spring Street","zip":"56521","city":"Pleasant Grove"}]},{"id":188,"name":"Lillian Alexander","phones":[{"type":"mobile","value":"(555) 555-5429"}],"emails":[{"type":"private","value":"lalexander@example.com"}],"addresses":[{"type":"home","street":"3559 3rd Avenue","zip":"66937","city":"Lakeview"}]},{"id":189,"name":"Brayden Bailey","phones":[{"type":"mobile","value":"(555) 555-8761"}],"emails":[{"type":"private","value":"bbailey@example.com"}],"addresses":[{"type":"home","street":"9429 Spruce Street","zip":"80536","city":"Ashland"}]},{"id":190,"name":"Matthew Bailey","phones":[{"type":"mobile","value":"(555) 555-1482"}],"emails":[{"type":"private","value":"mbailey@example.com"}],"addresses":[{"type":"home","street":"2676 Jackson Street","zip":"44371","city":"Highland Park"}]},{"id":191,"name":"Ashley Ramirez","phones":[{"type":"mobile","value":"(555) 555-7972"}],"emails":[{"type":"private","value":"aramirez@example.com"}],"addresses":[{"type":"home","street":"5658 Grove Street","zip":"27327","city":"Pine Grove"}]},{"id":192,"name":"Madison Bell","phones":[{"type":"mobile","value":"(555) 555-4665"}],"emails":[{"type":"private","value":"mbell@example.com"}],"addresses":[{"type":"home","street":"2880 Pine Street","zip":"93586","city":"Manchester"}]},{"id":193,"name":"Nevaeh Clark","phones":[{"type":"mobile","value":"(555) 555-5891"}],"emails":[{"type":"private","value":"nclark@example.com"}],"addresses":[{"type":"home","street":"6194 Route 30","zip":"50578","city":"Mount Vernon"}]},{"id":194,"name":"Michael Perez","phones":[{"type":"mobile","value":"(555) 555-8330"}],"emails":[{"type":"private","value":"mperez@example.com"}],"addresses":[{"type":"home","street":"5575 Main Street","zip":"18305","city":"Clayton"}]},{"id":195,"name":"Joseph Cooper","phones":[{"type":"mobile","value":"(555) 555-6667"}],"emails":[{"type":"private","value":"jcooper@example.com"}],"addresses":[{"type":"home","street":"6972 State Street","zip":"79152","city":"Franklin"}]},{"id":196,"name":"Khloe Bryant","phones":[{"type":"mobile","value":"(555) 555-6247"}],"emails":[{"type":"private","value":"kbryant@example.com"}],"addresses":[{"type":"home","street":"4424 Vine Street","zip":"63670","city":"Concord"}]},{"id":197,"name":"Evelyn Torres","phones":[{"type":"mobile","value":"(555) 555-6697"}],"emails":[{"type":"private","value":"etorres@example.com"}],"addresses":[{"type":"home","street":"6227 Pennsylvania Avenue","zip":"84837","city":"Arlington"}]},{"id":198,"name":"Jackson Griffin","phones":[{"type":"mobile","value":"(555) 555-3354"}],"emails":[{"type":"private","value":"jgriffin@example.com"}],"addresses":[{"type":"home","street":"1114 Hickory Lane","zip":"12928","city":"Clinton"}]},{"id":199,"name":"Samuel Ross","phones":[{"type":"mobile","value":"(555) 555-2787"}],"emails":[{"type":"private","value":"sross@example.com"}],"addresses":[{"type":"home","street":"1223 5th Street","zip":"60391","city":"Riverside"}]},{"id":200,"name":"Sophia Cox","phones":[{"type":"mobile","value":"(555) 555-2671"}],"emails":[{"type":"private","value":"scox@example.com"}],"addresses":[{"type":"home","street":"5106 3rd Street","zip":"54716","city":"Oxford"}]}]
